OSCAR 7 (AO-7)          
1 07530U 74089B   26171.32384949 -.00000048  00000+0 -10319-4 0  9993
2 07530 101.9899 184.6033 0012609 124.3014 247.3322 12.53698149360912
PHASE 3B (AO-10)        
1 14129U 83058B   26170.31181399  .00000155  00000+0  00000+0 0  9991
2 14129  25.9140 219.2125 6010101 116.2527 316.1180  2.05869727295535
UOSAT 2 (UO-11)         
1 14781U 84021B   26171.44314262  .00001042  00000+0  11163-3 0  9990
2 14781  97.8059 136.9814 0007936 162.0618 198.0882 14.90789882257615
LUSAT (LO-19)           
1 20442U 90005G   26171.32155512  .00000068  00000+0  41169-4 0  9995
2 20442  98.8848 193.2136 0011289 191.6338 168.4586 14.34123955902844
EYESAT A (AO-27)        
1 22825U 93061C   26171.42614367  .00000064  00000+0  41444-4 0  9998
2 22825  98.6879 238.8386 0009542  91.4815 268.7461 14.30943014707461
ITAMSAT (IO-26)         
1 22826U 93061D   26171.12497805  .00000065  00000+0  41439-4 0  9997
2 22826  98.6826 238.4553 0010030  77.4626 282.7678 14.31369966707739
RADIO ROSTO (RS15)      
1 23439U 94085A   26171.39747735 -.00000030  00000+0  35297-3 0  9991
2 23439  64.8186 298.0240 0156038   3.2812 356.9100 11.27583497296266
JAS-2 (FO-29)           
1 24278U 96046B   26171.34242250 -.00000016  00000+0  16133-4 0  9992
2 24278  98.5237  19.7822 0350925  88.2682 275.8612 13.53274552473592
TECHSAT 1B (GO-32)      
1 25397U 98043D   26171.43605319  .00000032  00000+0  33890-4 0  9999
2 25397  99.0068 164.2767 0001219 156.5266 203.5967 14.24428915451795
PCSAT (NO-44)           
1 26931U 01043C   26171.44204659  .00000049  00000+0  49145-4 0  9999
2 26931  67.0502 235.8536 0006064 264.6719  95.3691 14.31957058290913
SAUDISAT 1C (SO-50)     
1 27607U 02058C   26171.45947406  .00000719  00000+0  10244-3 0  9993
2 27607  64.5513 118.8607 0075194 261.8620  97.3951 14.83052787264944
CUTE-1 (CO-55)          
1 27844U 03031E   26170.56610412  .00000202  00000+0  10624-3 0  9992
2 27844  98.6736 179.0951 0009689 171.1603 188.9749 14.24336935192018
CUBESAT XI-IV (CO-57)   
1 27848U 03031J   26170.97745452  .00000169  00000+0  93103-4 0  9990
2 27848  98.6765 179.2116 0009219 188.6492 171.4529 14.23622052191779
MOZHAETS 4 (RS22)       
1 27939U 03042A   26172.56395240  .00000799  00000+0  13137-3 0  9993
2 27939  98.3474 357.0459 0009954 253.7036 197.9632 14.73473438216193
CUBESAT XI-V            
1 28895U 05043F   26171.39224119  .00001059  00000+0  17435-3 0  9999
2 28895  98.2989 327.0811 0013858 190.3179 169.7745 14.72638633102225
CUTE-1.7+APD II (CO-65) 
1 32785U 08021C   26171.43070376  .00004727  00000+0  29901-3 0  9996
2 32785  97.8278 152.9166 0009448  28.6866 331.4880 15.09477800985683
SEEDS II (CO-66)        
1 32791U 08021J   26170.94270999  .00015827  00000+0  50132-3 0  9994
2 32791  97.7524 168.9721 0000692 347.0777  13.0446 15.32829868987716
YUBILEINY (RS30)        
1 32953U 08025A   26172.52475512  .00000034  00000+0  17473-3 0  9997
2 32953  82.5044 352.7410 0018693 303.9019  56.0283 12.43179579820238
KKS-1 (KISEKI)          
1 33499U 09002H   26171.42750161  .00000993  00000+0  12861-3 0  9993
2 33499  98.1188  93.9212 0006425 283.2129  76.8367 14.83130850936676
SWISSCUBE               
1 35932U 09051B   26171.17902305  .00000711  00000+0  15003-3 0  9991
2 35932  98.4033  79.1195 0006171 192.6984 167.4062 14.62486325889593
BEESAT-1                
1 35933U 09051C   26170.71084495  .00000603  00000+0  13077-3 0  9991
2 35933  98.3961  78.2733 0004371 207.4388 152.6582 14.61723870889551
ITUPSAT1                
1 35935U 09051E   26171.25204671  .00000541  00000+0  12172-3 0  9999
2 35935  98.4046  78.0115 0006403 222.9093 137.1608 14.60444493889189
XIWANG-1 (HOPE-1)       
1 36122U 09072B   26172.49983234 -.00000340  00000+0 -77539-3 0  9994
2 36122 100.4031 126.2633 0006978 220.7074 139.3518 13.16438347793571
O/OREOS (USA 219)       
1 37224U 10062C   26171.14280665  .00001640  00000+0  16050-3 0  9991
2 37224  71.9702  73.6446 0012657  56.8090 303.4293 14.93754530117087
JUGNU                   
1 37839U 11058B   26171.47379505  .00000387  00000+0  62780-4 0  9996
2 37839  19.9612 288.4626 0018614 112.2842 315.8284 14.13777522759490
SRMSAT                  
1 37841U 11058D   26171.35085059  .00000352  00000+0  47312-4 0  9990
2 37841  19.9729  40.3181 0011727 238.5935 283.9086 14.11576136758261
STRAND-1                
1 39090U 13009E   26171.39785274  .00000190  00000+0  78154-4 0  9994
2 39090  98.3923 351.5531 0007895 214.6818 145.3855 14.37164728697522
ZACUBE-1 (TSHEPISOSAT)  
1 39417U 13066B   26171.40676969  .00002330  00000+0  18337-3 0  9996
2 39417  97.8070 133.7603 0041215 236.5821 123.1458 15.01203183681216
GOMX-1                  
1 39430U 13066Q   26172.54391017  .00001498  00000+0  22955-3 0  9990
2 39430  97.6481  12.7311 0130030  63.7574 297.6930 14.69473415670553
